NORAD_CAT_ID,OBJECT_NAME,OBJECT_TYPE,EPOCH,MEAN_MOTION,ECCENTRICITY,INCLINATION,RA_OF_ASC_NODE,ARG_OF_PERICENTER,MEAN_ANOMALY,BSTAR,MEAN_MOTION_DOT,MEAN_MOTION_DDOT,TLE_LINE0,TLE_LINE1,TLE_LINE2,SEMIMAJOR_AXIS,PERIOD,APOGEE,PERIGEE,DECAYED
52697.0,STARLINK-4018,PAYLOAD,2024-03-07 02:25:58,15.08843698,0.0001805,53.2174,197.8322,126.6781,233.4377,6.464e-05,7.41e-06,0.0,0 STARLINK-4018,1 52697U 22053AT  24067.10136924  .00000741  00000-0  64640-4 0  9992,2 52697  53.2174 197.8322 0001805 126.6781 233.4377 15.08843698100080,6917.869,95.437,540.983,538.485,0.0
52697.0,STARLINK-4018,PAYLOAD,2024-03-07 13:33:41,15.08830515,0.0001792,53.2167,195.7497,130.8663,229.2484,0.00032634,4.908e-05,0.0,0 STARLINK-4018,1 52697U 22053AT  24067.56505984  .00004908  00000-0  32634-3 0  9994,2 52697  53.2167 195.7497 0001792 130.8663 229.2484 15.08830515100562,6917.909,95.438,541.014,538.535,0.0
52697.0,STARLINK-4018,PAYLOAD,2024-03-08 11:49:04,15.08844549,0.0001687,53.2166,191.5893,119.6949,240.4212,0.0001504,2.107e-05,0.0,0 STARLINK-4018,1 52697U 22053AT  24068.49241494  .00002107  00000-0  15040-3 0  9991,2 52697  53.2166 191.5893 0001687 119.6949 240.4212 15.08844549100296,6917.866,95.437,540.899,538.564,0.0
52697.0,STARLINK-4018,PAYLOAD,2024-03-08 14:59:50,15.08846972,0.0001305,53.2158,190.9955,96.9546,263.1595,0.00016412,2.326e-05,0.0,0 STARLINK-4018,1 52697U 22053AT  24068.62489481  .00002326  00000-0  16412-3 0  9993,2 52697  53.2158 190.9955 0001305  96.9546 263.1595 15.08846972100722,6917.859,95.437,540.627,538.821,0.0
52697.0,STARLINK-4018,PAYLOAD,2024-03-09 00:32:08,15.0886859,2.07e-05,53.2164,189.2105,76.3361,283.7654,0.00045185,6.917e-05,0.0,0 STARLINK-4018,1 52697U 22053AT  24069.02232022  .00006917  00000-0  45185-3 0  9994,2 52697  53.2164 189.2105 0000207  76.3361 283.7654 15.08868590100379,6917.793,95.436,539.801,539.515,0.0
52697.0,STARLINK-4018,PAYLOAD,2024-03-09 11:39:52,15.08831899,0.0001366,53.2174,187.1329,93.2651,266.8498,7.7434e-05,9.44e-06,0.0,0 STARLINK-4018,1 52697U 22053AT  24069.48602244  .00000944  00000-0  77434-4 0  9998,2 52697  53.2174 187.1329 0001366  93.2651 266.8498 15.08831899100440,6917.905,95.438,540.715,538.825,0.0
52697.0,STARLINK-4018,PAYLOAD,2024-03-09 14:50:38,15.08836935,0.0001122,53.2158,186.5374,80.4596,279.6523,0.00011958,1.616e-05,0.0,0 STARLINK-4018,1 52697U 22053AT  24069.61849970  .00001616  00000-0  11958-3 0  9997,2 52697  53.2158 186.5374 0001122  80.4596 279.6523 15.08836935100875,6917.89,95.438,540.531,538.979,0.0
52697.0,STARLINK-4018,PAYLOAD,2024-03-10 14:41:25,15.0883857,0.0001346,53.2164,182.0768,84.2019,275.9126,-3.8399e-05,-8.99e-06,0.0,0 STARLINK-4018,1 52697U 22053AT  24070.61209865 -.00000899  00000-0 -38399-4 0  9995,2 52697  53.2164 182.0768 0001346  84.2019 275.9126 15.08838570101023,6917.885,95.438,540.681,538.819,0.0
52697.0,STARLINK-4018,PAYLOAD,2024-03-11 11:21:26,15.08830025,0.0001461,53.219,178.2131,89.4681,270.6479,8.742e-05,1.103e-05,0.0,0 STARLINK-4018,1 52697U 22053AT  24071.47322568  .00001103  00000-0  87420-4 0  9992,2 52697  53.2190 178.2131 0001461  89.4681 270.6479 15.08830025100741,6917.911,95.438,540.787,538.765,0.0
52697.0,STARLINK-4018,PAYLOAD,2024-03-12 12:47:37,15.0883683,0.0001588,53.217,173.4516,85.084,275.0334,6.8437e-05,8.01e-06,0.0,0 STARLINK-4018,1 52697U 22053AT  24072.53306827  .00000801  00000-0  68437-4 0  9991,2 52697  53.2170 173.4516 0001588  85.0840 275.0334 15.08836830100909,6917.89,95.438,540.854,538.657,0.0
52697.0,STARLINK-4018,PAYLOAD,2024-03-12 23:55:18,15.08851133,0.0001176,53.2147,171.3688,78.1912,281.9212,-0.00014614,-2.614e-05,0.0,0 STARLINK-4018,1 52697U 22053AT  24072.99674216 -.00002614  00000-0 -14614-3 0  9994,2 52697  53.2147 171.3688 0001176  78.1912 281.9212 15.08851133100977,6917.846,95.437,540.525,538.898,0.0
52697.0,STARLINK-4018,PAYLOAD,2024-03-13 12:38:23,15.08830418,0.0001482,53.2144,168.9907,94.6439,265.4722,0.00056338,8.687e-05,0.0,0 STARLINK-4018,1 52697U 22053AT  24073.52666642  .00008687  00000-0  56338-3 0  9991,2 52697  53.2144 168.9907 0001482  94.6439 265.4722 15.08830418101053,6917.91,95.438,540.8,538.749,0.0
52697.0,STARLINK-4018,PAYLOAD,2024-03-14 06:07:37,15.08844221,0.0001131,53.2145,165.7225,77.496,282.6159,0.00025846,3.828e-05,0.0,0 STARLINK-4018,1 52697U 22053AT  24074.25529623  .00003828  00000-0  25846-3 0  9991,2 52697  53.2145 165.7225 0001131  77.4960 282.6159 15.08844221101570,6917.867,95.437,540.515,538.95,0.0
52697.0,STARLINK-4018,PAYLOAD,2024-03-14 12:29:10,15.08844691,0.0001246,53.2166,164.5296,91.8946,268.2189,0.00012068,1.634e-05,0.0,0 STARLINK-4018,1 52697U 22053AT  24074.52025818  .00001634  00000-0  12068-3 0  9993,2 52697  53.2166 164.5296 0001246  91.8946 268.2189 15.08844691101618,6917.866,95.437,540.593,538.869,0.0
52697.0,STARLINK-4018,PAYLOAD,2024-03-15 12:19:57,15.08841809,0.0001248,53.2169,160.0714,87.1874,272.9261,-6.4269e-05,-1.311e-05,0.0,0 STARLINK-4018,1 52697U 22053AT  24075.51386313 -.00001311  00000-0 -64269-4 0  9998,2 52697  53.2169 160.0714 0001248  87.1874 272.9261 15.08841809101359,6917.875,95.437,540.603,538.877,0.0
52697.0,STARLINK-4018,PAYLOAD,2024-03-15 15:30:43,15.08842331,0.0001261,53.217,159.4766,88.2538,271.8598,-6.1314e-05,-1.264e-05,0.0,0 STARLINK-4018,1 52697U 22053AT  24075.64634222 -.00001264  00000-0 -61314-4 0  9992,2 52697  53.2170 159.4766 0001261  88.2538 271.8598 15.08842331101783,6917.873,95.437,540.611,538.866,0.0
52697.0,STARLINK-4018,PAYLOAD,2024-03-16 12:10:44,15.08834327,0.0001401,53.2173,155.6114,104.4101,255.7046,3.3327e-05,2.42e-06,0.0,0 STARLINK-4018,1 52697U 22053AT  24076.50746445  .00000242  00000-0  33327-4 0  9995,2 52697  53.2173 155.6114 0001401 104.4101 255.7046 15.08834327101914,6917.898,95.438,540.732,538.794,0.0
52697.0,STARLINK-4018,PAYLOAD,2024-03-17 12:01:32,15.08811287,0.0001517,53.2171,151.1508,106.5736,253.5423,0.00036363,5.499e-05,0.0,0 STARLINK-4018,1 52697U 22053AT  24077.50107063  .00005499  00000-0  36363-3 0  9994,2 52697  53.2171 151.1508 0001517 106.5736 253.5423 15.08811287101651,6917.968,95.439,540.883,538.784,0.0
52697.0,STARLINK-4018,PAYLOAD,2024-03-18 11:52:19,15.0883355,0.0001372,53.2163,146.6936,92.8966,267.2183,2.9747e-05,1.85e-06,0.0,0 STARLINK-4018,1 52697U 22053AT  24078.49467300  .00000185  00000-0  29747-4 0  9992,2 52697  53.2163 146.6936 0001372  92.8966 267.2183 15.08833550101806,6917.9,95.438,540.714,538.816,0.0
52697.0,STARLINK-4018,PAYLOAD,2024-03-18 15:03:06,15.08827624,0.0001373,53.2162,146.0924,88.0604,272.0546,0.00013139,1.803e-05,0.0,0 STARLINK-4018,1 52697U 22053AT  24078.62715407  .00001803  00000-0  13139-3 0  9996,2 52697  53.2162 146.0924 0001373  88.0604 272.0546 15.08827624102233,6917.918,95.438,540.733,538.833,0.0
52697.0,STARLINK-4018,PAYLOAD,2024-03-19 11:43:05,15.08847712,0.0001472,53.2161,142.2297,87.1433,272.9728,0.00014507,2.022e-05,0.0,0 STARLINK-4018,1 52697U 22053AT  24079.48826223  .00002022  00000-0  14507-3 0  9994,2 52697  53.2161 142.2297 0001472  87.1433 272.9728 15.08847712101952,6917.857,95.437,540.74,538.704,0.0
52697.0,STARLINK-4018,PAYLOAD,2024-03-20 09:58:30,15.08833824,0.000163,53.2169,138.068,77.2135,282.9039,3.5341e-05,2.74e-06,0.0,0 STARLINK-4018,1 52697U 22053AT  24080.41563497  .00000274  00000-0  35341-4 0  9997,2 52697  53.2169 138.0680 0001630  77.2135 282.9039 15.08833824102095,6917.899,95.438,540.892,538.637,0.0
52697.0,STARLINK-4018,PAYLOAD,2024-03-20 13:09:17,15.08835381,0.000159,53.2167,137.4727,78.7253,281.3918,4.333e-05,4.02e-06,0.0,0 STARLINK-4018,1 52697U 22053AT  24080.54811385  .00000402  00000-0  43330-4 0  9993,2 52697  53.2167 137.4727 0001590  78.7253 281.3918 15.08835381102527,6917.895,95.438,540.859,538.66,0.0
52697.0,STARLINK-4018,PAYLOAD,2024-03-21 13:00:03,15.08848608,0.000162,53.2166,133.0096,104.0463,256.0709,2.8065e-05,1.59e-06,0.0,0 STARLINK-4018,1 52697U 22053AT  24081.54170464  .00000159  00000-0  28065-4 0  9997,2 52697  53.2166 133.0096 0001620 104.0463 256.0709 15.08848608102261,6917.854,95.437,540.84,538.598,0.0
52697.0,STARLINK-4018,PAYLOAD,2024-03-22 12:50:49,15.0884959,0.0001474,53.2163,128.549,95.0973,265.0187,0.00016526,2.344e-05,0.0,0 STARLINK-4018,1 52697U 22053AT  24082.53529715  .00002344  00000-0  16526-3 0  9990,2 52697  53.2163 128.5490 0001474  95.0973 265.0187 15.08849590102820,6917.851,95.437,540.736,538.696,0.0
52697.0,STARLINK-4018,PAYLOAD,2024-03-23 03:09:18,15.08839796,0.0001583,53.2165,125.8735,90.0581,270.0592,-1.6244e-05,-5.47e-06,0.0,0 STARLINK-4018,1 52697U 22053AT  24083.13146984 -.00000547  00000-0 -16244-4 0  9993,2 52697  53.2165 125.8735 0001583  90.0581 270.0592 15.08839796102503,6917.881,95.438,540.841,538.651,0.0
52697.0,STARLINK-4018,PAYLOAD,2024-03-23 07:55:28,15.08836211,0.0001468,53.2166,124.9807,104.539,255.5765,-3.2229e-05,-8.01e-06,0.0,0 STARLINK-4018,1 52697U 22053AT  24083.33019341 -.00000801  00000-0 -32229-4 0  9995,2 52697  53.2166 124.9807 0001468 104.5390 255.5765 15.08836211102942,6917.892,95.438,540.773,538.741,0.0
52697.0,STARLINK-4018,PAYLOAD,2024-03-24 12:32:24,15.08843178,0.000126,53.2163,119.628,86.4431,273.6706,-2.1097e-05,-6.24e-06,0.0,0 STARLINK-4018,1 52697U 22053AT  24084.52250634 -.00000624  00000-0 -21097-4 0  9993,2 52697  53.2163 119.6280 0001260  86.4431 273.6706 15.08843178102710,6917.871,95.437,540.607,538.864,0.0
52697.0,STARLINK-4018,PAYLOAD,2024-03-25 02:50:53,15.08827964,0.0001253,53.2175,116.9512,98.8744,261.239,0.00016714,2.372e-05,0.0,0 STARLINK-4018,1 52697U 22053AT  24085.11867751  .00002372  00000-0  16714-3 0  9992,2 52697  53.2175 116.9512 0001253  98.8744 261.2390 15.08827964102804,6917.917,95.438,540.649,538.915,0.0
52697.0,STARLINK-4018,PAYLOAD,2024-03-25 18:44:44,15.08844778,0.000138,53.2168,113.977,72.36,287.7543,8.4122e-05,1.051e-05,0.0,0 STARLINK-4018,1 52697U 22053AT  24085.78107111  .00001051  00000-0  84122-4 0  9994,2 52697  53.2168 113.9770 0001380  72.3600 287.7543 15.08844778102904,6917.866,95.437,540.685,538.776,0.0
